start=new Date('2021-10-22T00:00:00.000Z').valueOf();
sats=[{"FILE":"3176553","SITE":"AFETR","MEAN_ANOMALY":"289.0440","OBJECT_ID":"2020-062Z","MEAN_MOTION_DDOT":"0.0000000000000","GP_ID":"187810373","NORAD_CAT_ID":"46348","COUNTRY_CODE":"US","OBJECT_TYPE":"PAYLOAD","CLASSIFICATION_TYPE":"U","INCLINATION":"53.0552","BSTAR":"-0.00010379000000","REF_FRAME":"TEME","MEAN_ELEMENT_THEORY":"SGP4","APOAPSIS":"548.212","MEAN_MOTION_DOT":"-0.00001826","TLE_LINE1":"1 46348U 20062Z   21294.44244463 -.00001826  00000-0 -10379-3 0  9996","REV_AT_EPOCH":"6339","RA_OF_ASC_NODE":"340.4024","EPHEMERIS_TYPE":"0","TIME_SYSTEM":"UTC","EPOCH":"2021-10-21T10:37:07.216032","LAUNCH_DATE":"2020-09-03","SEMIMAJOR_AXIS":"6925.416","PERIAPSIS":"546.350","ELEMENT_SET_NO":"999","DECAY_DATE":null,"TLE_LINE2":"2 46348  53.0552 340.4024 0001344  71.0695 289.0440 15.06378030 63395","MEAN_MOTION":"15.06378030","ARG_OF_PERICENTER":"71.0695","ECCENTRICITY":"0.00013440","RCS_SIZE":"LARGE","OBJECT_NAME":"STARLINK-1553","CENTER_NAME":"EARTH","PERIOD":"95.594"},{"OBJECT_ID":"2020-062AA","SITE":"AFETR","FILE":"3176553","MEAN_ANOMALY":"276.7373","GP_ID":"187811619","MEAN_MOTION_DDOT":"0.0000000000000","CLASSIFICATION_TYPE":"U","COUNTRY_CODE":"US","NORAD_CAT_ID":"46349","OBJECT_TYPE":"PAYLOAD","REF_FRAME":"TEME","MEAN_ELEMENT_THEORY":"SGP4","BSTAR":"-0.00010373000000","INCLINATION":"53.0558","TIME_SYSTEM":"UTC","EPHEMERIS_TYPE":"0","RA_OF_ASC_NODE":"315.2887","APOAPSIS":"548.138","MEAN_MOTION_DOT":"-0.00001826","TLE_LINE1":"1 46349U 20062AA  21294.43921156 -.00001826  00000-0 -10373-3 0  9991","REV_AT_EPOCH":"6374","DECAY_DATE":null,"TLE_LINE2":"2 46349  53.0558 315.2887 0001298  83.3764 276.7373 15.06391672 63744","ARG_OF_PERICENTER":"83.3764","MEAN_MOTION":"15.06391672","EPOCH":"2021-10-21T10:32:27.878784","LAUNCH_DATE":"2020-09-03","SEMIMAJOR_AXIS":"6925.374","PERIAPSIS":"546.340","ELEMENT_SET_NO":"999","RCS_SIZE":"LARGE","ECCENTRICITY":"0.00012980","CENTER_NAME":"EARTH","PERIOD":"95.593","OBJECT_NAME":"STARLINK-1575"},{"CENTER_NAME":"EARTH","PERIOD":"95.592","OBJECT_NAME":"STARLINK-1617","RCS_SIZE":"LARGE","ECCENTRICITY":"0.00010930","DECAY_DATE":null,"TLE_LINE2":"2 46350  53.0556   0.2760 0001093  91.5595 268.5519 15.06397430 63122","MEAN_MOTION":"15.06397430","ARG_OF_PERICENTER":"91.5595","SEMIMAJOR_AXIS":"6925.356","LAUNCH_DATE":"2020-09-03","EPOCH":"2021-10-21T11:16:53.522688","PERIAPSIS":"546.464","ELEMENT_SET_NO":"999","EPHEMERIS_TYPE":"0","TIME_SYSTEM":"UTC","RA_OF_ASC_NODE":"0.2760","APOAPSIS":"547.978","MEAN_MOTION_DOT":"-0.00000201","TLE_LINE1":"1 46350U 20062AB  21294.47006392 -.00000201  00000-0  53697-5 0  9996","REV_AT_EPOCH":"6312","REF_FRAME":"TEME","MEAN_ELEMENT_THEORY":"SGP4","BSTAR":"0.00000536970000","INCLINATION":"53.0556","CLASSIFICATION_TYPE":"U","COUNTRY_CODE":"US","NORAD_CAT_ID":"46350","OBJECT_TYPE":"PAYLOAD","GP_ID":"187811873","MEAN_MOTION_DDOT":"0.0000000000000","OBJECT_ID":"2020-062AB","SITE":"AFETR","FILE":"3176553","MEAN_ANOMALY":"268.5519"},{"GP_ID":"187813551","MEAN_MOTION_DDOT":"0.0000000000000","OBJECT_ID":"2020-062AC","MEAN_ANOMALY":"265.8310","FILE":"3176621","SITE":"AFETR","MEAN_ELEMENT_THEORY":"SGP4","REF_FRAME":"TEME","INCLINATION":"53.0548","BSTAR":"-0.00011710000000","CLASSIFICATION_TYPE":"U","OBJECT_TYPE":"PAYLOAD","NORAD_CAT_ID":"46351","COUNTRY_CODE":"US","TLE_LINE2":"2 46351  53.0548 340.2619 0001089  94.2804 265.8310 15.06397153 63583","MEAN_MOTION":"15.06397153","ARG_OF_PERICENTER":"94.2804","DECAY_DATE":null,"PERIAPSIS":"546.468","ELEMENT_SET_NO":"999","EPOCH":"2021-10-21T11:24:52.798176","LAUNCH_DATE":"2020-09-03","SEMIMAJOR_AXIS":"6925.357","RA_OF_ASC_NODE":"340.2619","TIME_SYSTEM":"UTC","EPHEMERIS_TYPE":"0","REV_AT_EPOCH":"6358","TLE_LINE1":"1 46351U 20062AC  21294.47561109 -.00002025  00000-0 -11710-3 0  9994","MEAN_MOTION_DOT":"-0.00002025","APOAPSIS":"547.976","PERIOD":"95.592","CENTER_NAME":"EARTH","OBJECT_NAME":"STARLINK-1646","RCS_SIZE":"LARGE","ECCENTRICITY":"0.00010890"},{"RA_OF_ASC_NODE":"339.7421","EPHEMERIS_TYPE":"0","TIME_SYSTEM":"UTC","APOAPSIS":"548.206","MEAN_MOTION_DOT":"-0.00000080","REV_AT_EPOCH":"6342","TLE_LINE1":"1 46352U 20062AD  21294.58986178 -.00000080  00000-0  13557-4 0  9994","DECAY_DATE":null,"TLE_LINE2":"2 46352  53.0552 339.7421 0001412  81.5434 278.5715 15.06395309 63425","ARG_OF_PERICENTER":"81.5434","MEAN_MOTION":"15.06395309","EPOCH":"2021-10-21T14:09:24.057792","LAUNCH_DATE":"2020-09-03","SEMIMAJOR_AXIS":"6925.363","PERIAPSIS":"546.250","ELEMENT_SET_NO":"999","RCS_SIZE":"LARGE","ECCENTRICITY":"0.00014120","CENTER_NAME":"EARTH","PERIOD":"95.592","OBJECT_NAME":"STARLINK-1653","OBJECT_ID":"2020-062AD","FILE":"3176920","SITE":"AFETR","MEAN_ANOMALY":"278.5715","GP_ID":"187841021","MEAN_MOTION_DDOT":"0.0000000000000","CLASSIFICATION_TYPE":"U","NORAD_CAT_ID":"46352","COUNTRY_CODE":"US","OBJECT_TYPE":"PAYLOAD","REF_FRAME":"TEME","MEAN_ELEMENT_THEORY":"SGP4","INCLINATION":"53.0552","BSTAR":"0.00001355700000"},{"GP_ID":"187841266","MEAN_MOTION_DDOT":"0.0000000000000","OBJECT_ID":"2020-062AE","FILE":"3176920","SITE":"AFETR","MEAN_ANOMALY":"255.9703","REF_FRAME":"TEME","MEAN_ELEMENT_THEORY":"SGP4","INCLINATION":"53.0567","BSTAR":"-0.00017238000000","CLASSIFICATION_TYPE":"U","NORAD_CAT_ID":"46353","COUNTRY_CODE":"US","OBJECT_TYPE":"PAYLOAD","DECAY_DATE":null,"MEAN_MOTION":"15.06389745","TLE_LINE2":"2 46353  53.0567 359.7560 0000907 104.1386 255.9703 15.06389745 63135","ARG_OF_PERICENTER":"104.1386","LAUNCH_DATE":"2020-09-03","EPOCH":"2021-10-21T14:06:45.623520","SEMIMAJOR_AXIS":"6925.380","PERIAPSIS":"546.617","ELEMENT_SET_NO":"999","RA_OF_ASC_NODE":"359.7560","TIME_SYSTEM":"UTC","EPHEMERIS_TYPE":"0","APOAPSIS":"547.873","MEAN_MOTION_DOT":"-0.00002847","TLE_LINE1":"1 46353U 20062AE  21294.58802805 -.00002847  00000-0 -17238-3 0  9992","REV_AT_EPOCH":"6313","CENTER_NAME":"EARTH","PERIOD":"95.593","OBJECT_NAME":"STARLINK-1656","RCS_SIZE":"LARGE","ECCENTRICITY":"0.00009070"},{"BSTAR":"-0.00009783400000","INCLINATION":"53.0556","REF_FRAME":"TEME","MEAN_ELEMENT_THEORY":"SGP4","COUNTRY_CODE":"US","NORAD_CAT_ID":"46354","OBJECT_TYPE":"PAYLOAD","CLASSIFICATION_TYPE":"U","MEAN_MOTION_DDOT":"0.0000000000000","GP_ID":"187811374","SITE":"AFETR","FILE":"3176553","MEAN_ANOMALY":"264.1350","OBJECT_ID":"2020-062AF","OBJECT_NAME":"STARLINK-1657","CENTER_NAME":"EARTH","PERIOD":"95.592","ECCENTRICITY":"0.00012160","RCS_SIZE":"LARGE","LAUNCH_DATE":"2020-09-03","EPOCH":"2021-10-21T10:39:45.788544","SEMIMAJOR_AXIS":"6925.347","PERIAPSIS":"546.370","ELEMENT_SET_NO":"999","DECAY_DATE":null,"MEAN_MOTION":"15.06400350","TLE_LINE2":"2 46354  53.0556   0.3950 0001216  95.9778 264.1350 15.06400350 63116","ARG_OF_PERICENTER":"95.9778","APOAPSIS":"548.055","MEAN_MOTION_DOT":"-0.00001738","TLE_LINE1":"1 46354U 20062AF  21294.44427996 -.00001738  00000-0 -97834-4 0  9991","REV_AT_EPOCH":"6311","EPHEMERIS_TYPE":"0","TIME_SYSTEM":"UTC","RA_OF_ASC_NODE":"0.3950"},{"INCLINATION":"53.0561","BSTAR":"-0.00011403000000","REF_FRAME":"TEME","MEAN_ELEMENT_THEORY":"SGP4","NORAD_CAT_ID":"46355","COUNTRY_CODE":"US","OBJECT_TYPE":"PAYLOAD","CLASSIFICATION_TYPE":"U","MEAN_MOTION_DDOT":"0.0000000000000","GP_ID":"187810124","FILE":"3176553","SITE":"AFETR","MEAN_ANOMALY":"272.3914","OBJECT_ID":"2020-062AG","OBJECT_NAME":"STARLINK-1661","CENTER_NAME":"EARTH","PERIOD":"95.593","ECCENTRICITY":"0.00011110","RCS_SIZE":"LARGE","LAUNCH_DATE":"2020-09-03","SEMIMAJOR_AXIS":"6925.389","EPOCH":"2021-10-21T11:38:08.635488","ELEMENT_SET_NO":"999","PERIAPSIS":"546.484","DECAY_DATE":null,"TLE_LINE2":"2 46355  53.0561   0.2175 0001111  87.7202 272.3914 15.06386963 63127","MEAN_MOTION":"15.06386963","ARG_OF_PERICENTER":"87.7202","APOAPSIS":"548.023","MEAN_MOTION_DOT":"-0.00001979","REV_AT_EPOCH":"6312","TLE_LINE1":"1 46355U 20062AG  21294.48482217 -.00001979  00000-0 -11403-3 0  9997","RA_OF_ASC_NODE":"0.2175","EPHEMERIS_TYPE":"0","TIME_SYSTEM":"UTC"},{"MEAN_MOTION_DDOT":"0.0000000000000","GP_ID":"187840522","MEAN_ANOMALY":"264.4682","SITE":"AFETR","FILE":"3176920","OBJECT_ID":"2020-062AH","BSTAR":"-0.00009232100000","INCLINATION":"53.0548","MEAN_ELEMENT_THEORY":"SGP4","REF_FRAME":"TEME","OBJECT_TYPE":"PAYLOAD","COUNTRY_CODE":"US","NORAD_CAT_ID":"46356","CLASSIFICATION_TYPE":"U","ELEMENT_SET_NO":"999","PERIAPSIS":"546.313","EPOCH":"2021-10-21T13:29:36.242592","LAUNCH_DATE":"2020-09-03","SEMIMAJOR_AXIS":"6925.374","ARG_OF_PERICENTER":"95.6460","TLE_LINE2":"2 46356  53.0548 359.8830 0001337  95.6460 264.4682 15.06391610 63138","MEAN_MOTION":"15.06391610","DECAY_DATE":null,"REV_AT_EPOCH":"6313","TLE_LINE1":"1 46356U 20062AH  21294.56222503 -.00001656  00000-0 -92321-4 0  9998","MEAN_MOTION_DOT":"-0.00001656","APOAPSIS":"548.165","TIME_SYSTEM":"UTC","EPHEMERIS_TYPE":"0","RA_OF_ASC_NODE":"359.8830","OBJECT_NAME":"STARLINK-1665","PERIOD":"95.593","CENTER_NAME":"EARTH","ECCENTRICITY":"0.00013370","RCS_SIZE":"LARGE"},{"RCS_SIZE":"LARGE","ECCENTRICITY":"0.00013160","CENTER_NAME":"EARTH","PERIOD":"95.592","OBJECT_NAME":"STARLINK-1666","EPHEMERIS_TYPE":"0","TIME_SYSTEM":"UTC","RA_OF_ASC_NODE":"339.5907","MEAN_MOTION_DOT":"-0.00000227","APOAPSIS":"548.135","REV_AT_EPOCH":"6342","TLE_LINE1":"1 46357U 20062AJ  21294.62672002 -.00000227  00000-0  36823-5 0  9997","DECAY_DATE":null,"ARG_OF_PERICENTER":"89.1304","TLE_LINE2":"2 46357  53.0562 339.5907 0001316  89.1304 270.9836 15.06396734 63424","MEAN_MOTION":"15.06396734","LAUNCH_DATE":"2020-09-03","EPOCH":"2021-10-21T15:02:28.609728","SEMIMAJOR_AXIS":"6925.359","PERIAPSIS":"546.312","ELEMENT_SET_NO":"999","CLASSIFICATION_TYPE":"U","COUNTRY_CODE":"US","NORAD_CAT_ID":"46357","OBJECT_TYPE":"PAYLOAD","REF_FRAME":"TEME","MEAN_ELEMENT_THEORY":"SGP4","BSTAR":"0.00000368230000","INCLINATION":"53.0562","OBJECT_ID":"2020-062AJ","SITE":"AFETR","FILE":"3176920","MEAN_ANOMALY":"270.9836","GP_ID":"187840767","MEAN_MOTION_DDOT":"0.0000000000000"}];
